{
  "type": "FeatureCollection",
  "features": [
    {
      "type": "Feature",
      "properties": {
        "norad_id": 66908,
        "name": "1998-067XU",
        "group": "last-30-days",
        "lat": 49.96080659991864,
        "lon": -155.70983328352963,
        "alt_km": 407.3689106973052,
        "timestamp": "2025-12-14T11:29:48.800451+00:00",
        "meta_object_name": "1998-067XU",
        "meta_object_id": "1998-067XU",
        "meta_epoch": "2025-12-13T16:36:58.397184",
        "meta_mean_motion": 15.51689462,
        "meta_eccentricity": 0.0004467,
        "meta_inclination": 51.6298,
        "meta_ra_of_asc_node": 137.651,
        "meta_arg_of_pericenter": 231.591,
        "meta_mean_anomaly": 128.4679,
        "meta_ephemeris_type": 0,
        "meta_classification_type": "U",
        "meta_norad_cat_id": 66908,
        "meta_element_set_no": 999,
        "meta_rev_at_epoch": 176,
        "meta_bstar": 0.0011749289,
        "meta_mean_motion_dot": 0.0007141,
        "meta_mean_motion_ddot": 0,
        "tle_line1": "1 66908U 98067XU  25347.69234256  .00071410  00000+0  11749-2 0  9993",
        "tle_line2": "2 66908  51.6298 137.6510 0004467 231.5910 128.4679 15.51689462  1765"
      },
      "geometry": {
        "type": "Point",
        "coordinates": [
          -155.70983328352963,
          49.96080659991864
        ]
      }
    },
    {
      "type": "Feature",
      "properties": {
        "norad_id": 66909,
        "name": "SILVERSAT",
        "group": "last-30-days",
        "lat": 50.60511292711013,
        "lon": -151.52353092105875,
        "alt_km": 406.8573553820952,
        "timestamp": "2025-12-14T11:29:48.800463+00:00",
        "meta_object_name": "SILVERSAT",
        "meta_object_id": "1998-067XV",
        "meta_epoch": "2025-12-13T16:36:20.876256",
        "meta_mean_motion": 15.51801579,
        "meta_eccentricity": 0.00043516,
        "meta_inclination": 51.6299,
        "meta_ra_of_asc_node": 137.6482,
        "meta_arg_of_pericenter": 233.7111,
        "meta_mean_anomaly": 126.3477,
        "meta_ephemeris_type": 0,
        "meta_classification_type": "U",
        "meta_norad_cat_id": 66909,
        "meta_element_set_no": 999,
        "meta_rev_at_epoch": 176,
        "meta_bstar": 0.0012037928,
        "meta_mean_motion_dot": 0.0007349,
        "meta_mean_motion_ddot": 0,
        "tle_line1": "1 66909U 98067XV  25347.69190829  .00073490  00000+0  12038-2 0  9993",
        "tle_line2": "2 66909  51.6299 137.6482 0004351 233.7111 126.3477 15.51801579  1762"
      },
      "geometry": {
        "type": "Point",
        "coordinates": [
          -151.52353092105875,
          50.60511292711013
        ]
      }
    },
    {
      "type": "Feature",
      "properties": {
        "norad_id": 66910,
        "name": "1998-067XW",
        "group": "last-30-days",
        "lat": 51.606056363271854,
        "lon": -137.23695556507343,
        "alt_km": 405.84212330954415,
        "timestamp": "2025-12-14T11:29:48.800479+00:00",
        "meta_object_name": "1998-067XW",
        "meta_object_id": "1998-067XW",
        "meta_epoch": "2025-12-13T16:34:05.866752",
        "meta_mean_motion": 15.51910394,
        "meta_eccentricity": 0.00050843,
        "meta_inclination": 51.6299,
        "meta_ra_of_asc_node": 137.6381,
        "meta_arg_of_pericenter": 213.9756,
        "meta_mean_anomaly": 146.0909,
        "meta_ephemeris_type": 0,
        "meta_classification_type": "U",
        "meta_norad_cat_id": 66910,
        "meta_element_set_no": 999,
        "meta_rev_at_epoch": 176,
        "meta_bstar": 0.001065728,
        "meta_mean_motion_dot": 0.00065203,
        "meta_mean_motion_ddot": 0,
        "tle_line1": "1 66910U 98067XW  25347.69034568  .00065203  00000+0  10657-2 0  9990",
        "tle_line2": "2 66910  51.6299 137.6381 0005084 213.9756 146.0909 15.51910394  1766"
      },
      "geometry": {
        "type": "Point",
        "coordinates": [
          -137.23695556507343,
          51.606056363271854
        ]
      }
    },
    {
      "type": "Feature",
      "properties": {
        "norad_id": 66911,
        "name": "1998-067XX",
        "group": "last-30-days",
        "lat": 51.31910617984431,
        "lon": -128.04038159674948,
        "alt_km": 404.6929733305842,
        "timestamp": "2025-12-14T11:29:48.800489+00:00",
        "meta_object_name": "1998-067XX",
        "meta_object_id": "1998-067XX",
        "meta_epoch": "2025-12-13T16:32:49.998912",
        "meta_mean_motion": 15.52189321,
        "meta_eccentricity": 0.00048024,
        "meta_inclination": 51.6299,
        "meta_ra_of_asc_node": 137.6321,
        "meta_arg_of_pericenter": 215.3057,
        "meta_mean_anomaly": 144.7616,
        "meta_ephemeris_type": 0,
        "meta_classification_type": "U",
        "meta_norad_cat_id": 66911,
        "meta_element_set_no": 999,
        "meta_rev_at_epoch": 175,
        "meta_bstar": 0.0012499181,
        "meta_mean_motion_dot": 0.00077443,
        "meta_mean_motion_ddot": 0,
        "tle_line1": "1 66911U 98067XX  25347.68946758  .00077443  00000+0  12499-2 0  9998",
        "tle_line2": "2 66911  51.6299 137.6321 0004802 215.3057 144.7616 15.52189321  1756"
      },
      "geometry": {
        "type": "Point",
        "coordinates": [
          -128.04038159674948,
          51.31910617984431
        ]
      }
    },
    {
      "type": "Feature",
      "properties": {
        "norad_id": 66912,
        "name": "1998-067XY",
        "group": "last-30-days",
        "lat": 46.50349658169328,
        "lon": -169.6218858812649,
        "alt_km": 409.3547311831644,
        "timestamp": "2025-12-14T11:29:48.800502+00:00",
        "meta_object_name": "1998-067XY",
        "meta_object_id": "1998-067XY",
        "meta_epoch": "2025-12-13T16:39:11.573280",
        "meta_mean_motion": 15.51258263,
        "meta_eccentricity": 0.00045018,
        "meta_inclination": 51.6303,
        "meta_ra_of_asc_node": 137.6613,
        "meta_arg_of_pericenter": 228.8979,
        "meta_mean_anomaly": 131.1622,
        "meta_ephemeris_type": 0,
        "meta_classification_type": "U",
        "meta_norad_cat_id": 66912,
        "meta_element_set_no": 999,
        "meta_rev_at_epoch": 175,
        "meta_bstar": 0.00089167001,
        "meta_mean_motion_dot": 0.00053126,
        "meta_mean_motion_ddot": 0,
        "tle_line1": "1 66912U 98067XY  25347.69388395  .00053126  00000+0  89167-3 0  9996",
        "tle_line2": "2 66912  51.6303 137.6613 0004501 228.8979 131.1622 15.51258263  1753"
      },
      "geometry": {
        "type": "Point",
        "coordinates": [
          -169.6218858812649,
          46.50349658169328
        ]
      }
    },
    {
      "type": "Feature",
      "properties": {
        "norad_id": 66913,
        "name": "2025-284A",
        "group": "last-30-days",
        "lat": -25.338867019442397,
        "lon": -47.8449818909536,
        "alt_km": 506.23423839448697,
        "timestamp": "2025-12-14T11:29:48.800512+00:00",
        "meta_object_name": "2025-284A",
        "meta_object_id": "2025-284A",
        "meta_epoch": "2025-12-13T15:37:23.191968",
        "meta_mean_motion": 15.18989499,
        "meta_eccentricity": 0.00120382,
        "meta_inclination": 80.4042,
        "meta_ra_of_asc_node": 128.6097,
        "meta_arg_of_pericenter": 201.7679,
        "meta_mean_anomaly": 158.3038,
        "meta_ephemeris_type": 0,
        "meta_classification_type": "U",
        "meta_norad_cat_id": 66913,
        "meta_element_set_no": 999,
        "meta_rev_at_epoch": 126,
        "meta_bstar": 0.0005299121,
        "meta_mean_motion_dot": 0.0001113,
        "meta_mean_motion_ddot": 0,
        "tle_line1": "1 66913U 25284A   25347.65096287  .00011130  00000+0  52991-3 0  9994",
        "tle_line2": "2 66913  80.4042 128.6097 0012038 201.7679 158.3038 15.18989499  1264"
      },
      "geometry": {
        "type": "Point",
        "coordinates": [
          -47.8449818909536,
          -25.338867019442397
        ]
      }
    },
    {
      "type": "Feature",
      "properties": {
        "norad_id": 66914,
        "name": "2025-284B",
        "group": "last-30-days",
        "lat": -27.063644314571395,
        "lon": -47.48033426120098,
        "alt_km": 509.9897043101337,
        "timestamp": "2025-12-14T11:29:48.800526+00:00",
        "meta_object_name": "2025-284B",
        "meta_object_id": "2025-284B",
        "meta_epoch": "2025-12-13T15:36:51.440832",
        "meta_mean_motion": 15.18940116,
        "meta_eccentricity": 0.00083333,
        "meta_inclination": 80.405,
        "meta_ra_of_asc_node": 128.6113,
        "meta_arg_of_pericenter": 244.1066,
        "meta_mean_anomaly": 115.9302,
        "meta_ephemeris_type": 0,
        "meta_classification_type": "U",
        "meta_norad_cat_id": 66914,
        "meta_element_set_no": 999,
        "meta_rev_at_epoch": 126,
        "meta_bstar": 0.00052273624,
        "meta_mean_motion_dot": 0.00010952,
        "meta_mean_motion_ddot": 0,
        "tle_line1": "1 66914U 25284B   25347.65059538  .00010952  00000+0  52274-3 0  9998",
        "tle_line2": "2 66914  80.4050 128.6113 0008333 244.1066 115.9302 15.18940116  1263"
      },
      "geometry": {
        "type": "Point",
        "coordinates": [
          -47.48033426120098,
          -27.063644314571395
        ]
      }
    }
  ]
}